GLOBALSTAR M094         
1 39074U 13005C   24282.29231684 -.00000051  00000+0  29638-3 0  9992
2 39074  51.9947 229.0619 0000857  66.3370 293.7586 12.62269186540567
GLOBALSTAR M096         
1 39075U 13005D   24282.70143752 -.00000066  00000+0  21024-3 0  9994
2 39075  52.0065 276.1362 0000773  62.6215 297.4731 12.62271311539534
GLOBALSTAR M078         
1 39076U 13005E   24282.51637805 -.00000090  00000+0  78293-4 0  9999
2 39076  51.9905   1.5488 0000828  15.2450 344.8441 12.62273789538132
GLOBALSTAR M095         
1 39077U 13005F   24282.46392719 -.00000035  00000+0  38204-3 0  9992
2 39077  51.9829 359.0327 0000835  59.3445 300.7503 12.62265888537985
GLOBALSTAR M087         
1 52888U 22064A   24282.83635937 -.00000044  00000+0  16093-3 0  9997
2 52888  51.9751 172.0879 0008741 296.1703  63.8298 13.37588798112732
